     2.100          NAVIGATION                              RINEX VERSION / TYPE
fic2rin                                 12/28/2014 00:29:59 PGM / RUN BY / DATE
                                                            END OF HEADER
 8 14 12 27 16  0  0.0  .168867409229D-04  .113686837722D-12  .000000000000D+00
     .130000000000D+02  .120000000000D+02  .362800826396D-08 -.123236321255D+01
     .521540641785D-06  .147674354957D-01  .950321555138D-05  .515219792747D+04
     .576000000000D+06  .331550836563D-06 -.219247019348D+01 -.191852450371D-06
     .995318073210D+00  .215937500000D+03 -.267691408177D+01 -.759031616714D-08
    -.195365280605D-09  .100000000000D+01  .182400000000D+04  .000000000000D+00
     .240000000000D+01  .630000000000D+02 -.465661287308D-08  .130000000000D+02
     .568806000000D+06  .400000000000D+01
 9 14 12 27 16  0  0.0 -.383886508644D-04 -.101181285572D-10  .000000000000D+00
     .300000000000D+02  .249375000000D+02  .488377485740D-08 -.269359494373D+00
     .122375786304D-05  .244986498728D-03  .548735260963D-05  .515367856598D+04
     .576000000000D+06 -.167638063431D-07  .291172009480D+01 -.242143869400D-07
     .958869652130D+00  .271500000000D+03  .249161346378D+01 -.835177645644D-08
    -.193936649668D-09  .100000000000D+01  .182400000000D+04  .000000000000D+00
     .240000000000D+01  .000000000000D+00  .465661287308D-09  .300000000000D+02
     .568806000000D+06  .400000000000D+01
10 14 12 27 16  0  0.0 -.156127382070D-03 -.170530256582D-11  .000000000000D+00
     .360000000000D+02  .421250000000D+02  .513164232493D-08  .148150285888D+01
     .225752592087D-05  .144603247754D-01  .107325613499D-04  .515365043068D+04
     .576000000000D+06 -.290572643280D-06  .187807791131D+01  .800937414169D-07
     .941140420653D+00  .165812500000D+03  .912674850948D+00 -.843606568171D-08
     .202151277555D-09  .100000000000D+01  .182400000000D+04  .000000000000D+00
     .240000000000D+01  .000000000000D+00 -.325962901115D-08  .360000000000D+02
     .568806000000D+06  .400000000000D+01
11 14 12 27 16  0  0.0 -.546620227396D-03 -.272848410532D-11  .000000000000D+00
     .530000000000D+02 -.842500000000D+02  .615668502207D-08 -.229166864083D+01
    -.436976552010D-05  .156171378912D-01  .710599124432D-05  .515372200394D+04
     .576000000000D+06  .186264514923D-06  .486858854437D+00  .102445483208D-06
     .892224970740D+00  .198250000000D+03  .137241789266D+01 -.868750472659D-08
    -.353586156854D-10  .100000000000D+01  .182400000000D+04  .000000000000D+00
     .240000000000D+01  .000000000000D+00 -.121071934700D-07  .530000000000D+02
     .568806000000D+06  .400000000000D+01
12 14 12 27 16  0  0.0  .256787054241D-03  .295585778076D-11  .000000000000D+00
     .840000000000D+02  .311250000000D+02  .378622914021D-08 -.280250309143D+01
     .166706740856D-05  .509282143321D-02  .830739736557D-05  .515376083183D+04
     .576000000000D+06 -.149011611938D-07 -.123007518966D+01 -.689178705215D-07
     .988814157404D+00  .234062500000D+03  .499399409533D+00 -.773389357628D-08
     .353586156854D-09  .100000000000D+01  .182400000000D+04  .000000000000D+00
     .240000000000D+01  .000000000000D+00 -.121071934700D-07  .840000000000D+02
     .568806000000D+06  .400000000000D+01
13 14 12 27 16  0  0.0 -.733616761863D-04 -.341060513165D-11  .000000000000D+00
     .710000000000D+02  .191875000000D+02  .454876090272D-08 -.156014875551D+01
     .100024044514D-05  .586175103672D-02  .545196235180D-05  .515588057518D+04
     .576000000000D+06 -.158324837685D-06  .302441290081D+01  .558793544769D-08
     .975745358682D+00  .279781250000D+03  .220039999652D+01 -.821355641331D-08
    -.225009372544D-09  .100000000000D+01  .182400000000D+04  .000000000000D+00
     .240000000000D+01  .000000000000D+00 -.111758708954D-07  .710000000000D+02
     .568806000000D+06  .400000000000D+01
14 14 12 27 16  0  0.0  .102423131466D-03 -.352429196937D-11  .000000000000D+00
     .250000000000D+02  .170312500000D+02  .468840957679D-08  .231486910839D+00
     .905245542526D-06  .775779923424D-02  .560656189919D-05  .515376401329D+04
     .576000000000D+06 -.447034835815D-07  .299086168951D+01  .540167093277D-07
     .968235751065D+00  .277406250000D+03 -.196650920406D+01 -.840499295884D-08
    -.268225458381D-09  .100000000000D+01  .182400000000D+04  .000000000000D+00
     .240000000000D+01  .000000000000D+00 -.931322574615D-08  .250000000000D+02
     .568806000000D+06  .400000000000D+01
15 14 12 27 16  0  0.0 -.222816597670D-03 -.227373675443D-11  .000000000000D+00
     .310000000000D+02  .303437500000D+02  .548844290139D-08 -.445479035990D+00
     .152736902237D-05  .695388345048D-02  .500679016113D-05  .515356180382D+04
     .576000000000D+06  .949949026108D-07  .287182446818D+01  .912696123123D-07
     .934784376607D+00  .267812500000D+03  .346207916721D+00 -.872214902680D-08
    -.163221084528D-09  .100000000000D+01  .182400000000D+04  .000000000000D+00
     .240000000000D+01  .000000000000D+00 -.102445483208D-07  .310000000000D+02
     .568806000000D+06  .400000000000D+01
16 14 12 27 16  0  0.0 -.169837847352D-03  .306954461848D-11  .000000000000D+00
     .910000000000D+02  .460937500000D+02  .381265881254D-08  .134069244993D+01
     .251084566116D-05  .786236382555D-02  .750087201595D-05  .515372175789D+04
     .576000000000D+06 -.800937414169D-07 -.121143315875D+01  .104308128357D-06
     .989384420427D+00  .250156250000D+03  .229401085167D+00 -.787247077715D-08
     .212508851847D-09  .100000000000D+01  .182400000000D+04  .000000000000D+00
     .240000000000D+01  .000000000000D+00 -.102445483208D-07  .910000000000D+02
     .568806000000D+06  .400000000000D+01
17 14 12 27 16  0  0.0 -.146443955600D-03 -.227373675443D-11  .000000000000D+00
     .260000000000D+02 -.328125000000D+02  .470912472538D-08  .419899699788D+00
    -.180676579475D-05  .992006831802D-02  .478699803352D-05  .515368659210D+04
     .576000000000D+06 -.165775418282D-06 -.182546377732D+00  .745058059692D-07
     .971153865942D+00  .293687500000D+03 -.206423036163D+01 -.846570977365D-08
     .335728270144D-10  .100000000000D+01  .182400000000D+04  .000000000000D+00
     .240000000000D+01  .000000000000D+00 -.107102096081D-07  .260000000000D+02
     .568806000000D+06  .400000000000D+01
18 14 12 27 16  0  0.0  .368079170585D-03  .261479726760D-11  .000000000000D+00
     .820000000000D+02  .371875000000D+02  .536343769442D-08  .190268713241D+01
     .171177089214D-05  .155442208052D-01  .955350697041D-05  .515375333023D+04
     .576000000000D+06 -.167638063431D-06  .185218246923D+01 -.426545739174D-06
     .924909720534D+00  .177593750000D+03 -.199915176623D+01 -.836999150089D-08
     .236438420038D-09  .100000000000D+01  .182400000000D+04  .000000000000D+00
     .240000000000D+01  .000000000000D+00 -.111758708954D-07  .820000000000D+02
     .568806000000D+06  .400000000000D+01
19 14 12 27 16  0  0.0 -.494201667607D-03 -.159161572810D-11  .000000000000D+00
     .340000000000D+02 -.506562500000D+02  .473912597505D-08 -.417460181486D+00
    -.250339508057D-05  .107766903238D-01  .474043190479D-05  .515367600822D+04
     .576000000000D+06  .106170773506D-06 -.132450665993D+00  .745058059692D-07
     .968250010128D+00  .290843750000D+03  .515028911764D+00 -.846749556232D-08
     .239295681911D-10  .100000000000D+01  .182400000000D+04  .000000000000D+00
     .240000000000D+01  .000000000000D+00 -.149011611938D-07  .340000000000D+02
     .568806000000D+06  .400000000000D+01
20 14 12 27 16  0  0.0  .272035133094D-03  .420641299570D-11  .000000000000D+00
     .910000000000D+02  .521562500000D+02  .529272046305D-08  .237522073606D+01
     .257231295109D-05  .580946926493D-02  .103078782558D-04  .515579069710D+04
     .576000000000D+06  .372529029846D-07  .179933303219D+01 -.521540641785D-07
     .926046529304D+00  .158593750000D+03  .123820206532D+01 -.830784605514D-08
     .241438628317D-09  .100000000000D+01  .182400000000D+04  .000000000000D+00
     .240000000000D+01  .000000000000D+00 -.838190317154D-08  .910000000000D+02
     .568806000000D+06  .400000000000D+01
21 14 12 27 16  0  0.0 -.402631238103D-03 -.227373675443D-11  .000000000000D+00
     .260000000000D+02 -.796875000000D+02  .505199615020D-08  .288731299924D+01
    -.421330332756D-05  .219124496216D-01  .962242484093D-05  .515364526749D+04
     .576000000000D+06  .132247805595D-06  .807954610530D+00 -.288709998131D-06
     .933256421579D+00  .177625000000D+03 -.196708546798D+01 -.794211653532D-08
    -.115719105880D-09  .100000000000D+01  .182400000000D+04  .000000000000D+00
     .240000000000D+01  .000000000000D+00 -.116415321827D-07  .260000000000D+02
     .568806000000D+06  .400000000000D+01
22 14 12 27 16  0  0.0  .301108695567D-03  .397903932026D-11  .000000000000D+00
     .104000000000D+03  .414687500000D+02  .555415992448D-08  .139916744483D+01
     .218674540520D-05  .733757193666D-02  .949762761593D-05  .515371273613D+04
     .576000000000D+06 -.217929482460D-06  .185365275311D+01 -.130385160446D-07
     .922708463311D+00  .179812500000D+03 -.206760426619D+01 -.860893002506D-08
     .198579700213D-09  .100000000000D+01  .182400000000D+04  .000000000000D+00
     .340000000000D+01  .000000000000D+00 -.176951289177D-07  .104000000000D+03
     .568806000000D+06  .400000000000D+01
23 14 12 27 16  0  0.0 -.774757936597D-04 -.272848410532D-11  .000000000000D+00
     .410000000000D+02  .187812500000D+02  .509056918550D-08 -.866579892462D+00
     .927597284317D-06  .969325250480D-02  .517629086971D-05  .515368292618D+04
     .576000000000D+06  .214204192162D-06  .292171348715D+01 -.745058059692D-08
     .949938744990D+00  .271625000000D+03 -.271735993821D+01 -.850285417801D-08
    -.216437586923D-09  .100000000000D+01  .182400000000D+04  .000000000000D+00
     .240000000000D+01  .000000000000D+00 -.200234353542D-07  .410000000000D+02
     .568806000000D+06  .400000000000D+01
